[
    {
        "Altitude(m)": 604221.217787927,
        "Argument of Periapsis(deg)": 0.0,
        "Eccentricity": 0.0,
        "Inclination(deg)": 60.0,
        "Latitude(deg)": 14.11732261608389,
        "Longitude(deg)": 163.33417312519555,
        "Mean Anomaly(deg)": 16.363599999999984,
        "RAAN(deg)": 255.0,
        "Satellite Name": "Test1 1123",
        "Satellite Number": 1123,
        "Semi-Major Axis(m)": 6980739.136638005,
        "Time(s)": 0
    },
    {
        "Altitude(m)": 604235.3590950413,
        "Argument of Periapsis(deg)": 0.00010418945913296404,
        "Eccentricity": 0.0,
        "Inclination(deg)": 60.0,
        "Latitude(deg)": 14.651718983432668,
        "Longitude(deg)": 163.6226209328323,
        "Mean Anomaly(deg)": 16.983706145461838,
        "RAAN(deg)": 254.99957995086027,
        "Satellite Name": "Test1 1123",
        "Satellite Number": 1123,
        "Semi-Major Axis(m)": 6980739.136638005,
        "Time(s)": 10
    }
]